start=new Date('2023-02-09T00:00:00.000Z').valueOf();
sats=[{"ARG_OF_PERICENTER":"140.4488","MEAN_MOTION_DDOT":"0.0000000000000","DECAY_DATE":null,"TLE_LINE1":"1 51133U 22005AF  23039.90858630  .00016784  00000-0  10703-2 0  9997","INCLINATION":"53.2163","ELEMENT_SET_NO":"999","GP_ID":"224860631","FILE":"3780893","REV_AT_EPOCH":"5892","RA_OF_ASC_NODE":"308.4625","COUNTRY_CODE":"US","REF_FRAME":"TEME","OBJECT_TYPE":"PAYLOAD","PERIOD":"95.438","NORAD_CAT_ID":"51133","LAUNCH_DATE":"2022-01-19","SITE":"AFETR","ECCENTRICITY":"0.00017390","PERIAPSIS":"538.559","CLASSIFICATION_TYPE":"U","MEAN_MOTION_DOT":"0.00016784","OBJECT_NAME":"STARLINK-3356","TLE_LINE2":"2 51133  53.2163 308.4625 0001739 140.4488 219.6631 15.08834458 58920","APOAPSIS":"540.965","MEAN_ELEMENT_THEORY":"SGP4","RCS_SIZE":"LARGE","MEAN_MOTION":"15.08834458","TIME_SYSTEM":"UTC","OBJECT_ID":"2022-005AF","SEMIMAJOR_AXIS":"6917.897","CENTER_NAME":"EARTH","BSTAR":"0.00107030000000","EPOCH":"2023-02-08T21:48:21.856320","EPHEMERIS_TYPE":"0","MEAN_ANOMALY":"219.6631"},{"INCLINATION":"53.2166","TLE_LINE1":"1 51134U 22005AG  23039.87734142  .00016797  00000-0  10709-2 0  9995","MEAN_MOTION_DDOT":"0.0000000000000","ARG_OF_PERICENTER":"125.4067","DECAY_DATE":null,"OBJECT_TYPE":"PAYLOAD","REF_FRAME":"TEME","COUNTRY_CODE":"US","RA_OF_ASC_NODE":"298.6021","ELEMENT_SET_NO":"999","REV_AT_EPOCH":"5907","FILE":"3780893","GP_ID":"224859379","OBJECT_NAME":"STARLINK-3183","MEAN_MOTION_DOT":"0.00016797","SITE":"AFETR","ECCENTRICITY":"0.00012120","PERIAPSIS":"538.901","CLASSIFICATION_TYPE":"U","NORAD_CAT_ID":"51134","PERIOD":"95.437","LAUNCH_DATE":"2022-01-19","MEAN_ANOMALY":"234.7039","EPOCH":"2023-02-08T21:03:22.298688","EPHEMERIS_TYPE":"0","TIME_SYSTEM":"UTC","MEAN_MOTION":"15.08842047","BSTAR":"0.00107090000000","SEMIMAJOR_AXIS":"6917.874","OBJECT_ID":"2022-005AG","CENTER_NAME":"EARTH","TLE_LINE2":"2 51134  53.2166 298.6021 0001212 125.4067 234.7039 15.08842047 59076","RCS_SIZE":"LARGE","APOAPSIS":"540.578","MEAN_ELEMENT_THEORY":"SGP4"},{"COUNTRY_CODE":"US","REF_FRAME":"TEME","OBJECT_TYPE":"PAYLOAD","ELEMENT_SET_NO":"999","GP_ID":"224859130","REV_AT_EPOCH":"5892","FILE":"3780893","RA_OF_ASC_NODE":"308.4781","ARG_OF_PERICENTER":"113.8147","MEAN_MOTION_DDOT":"0.0000000000000","DECAY_DATE":null,"TLE_LINE1":"1 51135U 22005AH  23039.90491031  .00022992  00000-0  14581-2 0  9993","INCLINATION":"53.2159","EPOCH":"2023-02-08T21:43:04.250784","EPHEMERIS_TYPE":"0","MEAN_ANOMALY":"246.2983","TLE_LINE2":"2 51135  53.2159 308.4781 0001320 113.8147 246.2983 15.08837111 58927","APOAPSIS":"540.667","MEAN_ELEMENT_THEORY":"SGP4","RCS_SIZE":"LARGE","MEAN_MOTION":"15.08837111","TIME_SYSTEM":"UTC","SEMIMAJOR_AXIS":"6917.889","CENTER_NAME":"EARTH","OBJECT_ID":"2022-005AH","BSTAR":"0.00145810000000","MEAN_MOTION_DOT":"0.00022992","OBJECT_NAME":"STARLINK-3363","PERIOD":"95.438","NORAD_CAT_ID":"51135","LAUNCH_DATE":"2022-01-19","SITE":"AFETR","ECCENTRICITY":"0.00013200","PERIAPSIS":"538.841","CLASSIFICATION_TYPE":"U"},{"LAUNCH_DATE":"2022-01-19","NORAD_CAT_ID":"51136","PERIOD":"95.437","PERIAPSIS":"538.814","CLASSIFICATION_TYPE":"U","ECCENTRICITY":"0.00013220","SITE":"AFETR","MEAN_MOTION_DOT":"0.00024736","OBJECT_NAME":"STARLINK-3253","RCS_SIZE":"LARGE","APOAPSIS":"540.643","MEAN_ELEMENT_THEORY":"SGP4","TLE_LINE2":"2 51136  53.2145 308.4797 0001322 101.9529 258.1611 15.08845569 58920","BSTAR":"0.00156660000000","SEMIMAJOR_AXIS":"6917.863","CENTER_NAME":"EARTH","OBJECT_ID":"2022-005AJ","TIME_SYSTEM":"UTC","MEAN_MOTION":"15.08845569","EPHEMERIS_TYPE":"0","EPOCH":"2023-02-08T21:44:26.462112","MEAN_ANOMALY":"258.1611","DECAY_DATE":null,"MEAN_MOTION_DDOT":"0.0000000000000","ARG_OF_PERICENTER":"101.9529","INCLINATION":"53.2145","TLE_LINE1":"1 51136U 22005AJ  23039.90586183  .00024736  00000-0  15666-2 0  9990","FILE":"3780893","REV_AT_EPOCH":"5892","GP_ID":"224860381","ELEMENT_SET_NO":"999","RA_OF_ASC_NODE":"308.4797","COUNTRY_CODE":"US","OBJECT_TYPE":"PAYLOAD","REF_FRAME":"TEME"},{"INCLINATION":"53.2136","TLE_LINE1":"1 51137U 22005AK  23039.89386602  .00011146  00000-0  71728-3 0  9996","ARG_OF_PERICENTER":"127.5800","MEAN_MOTION_DDOT":"0.0000000000000","DECAY_DATE":null,"RA_OF_ASC_NODE":"308.5347","ELEMENT_SET_NO":"999","FILE":"3780893","REV_AT_EPOCH":"5893","GP_ID":"224860132","OBJECT_TYPE":"PAYLOAD","REF_FRAME":"TEME","COUNTRY_CODE":"US","ECCENTRICITY":"0.00018840","SITE":"AFETR","CLASSIFICATION_TYPE":"U","PERIAPSIS":"538.443","NORAD_CAT_ID":"51137","PERIOD":"95.438","LAUNCH_DATE":"2022-01-19","OBJECT_NAME":"STARLINK-3180","MEAN_MOTION_DOT":"0.00011146","TIME_SYSTEM":"UTC","MEAN_MOTION":"15.08839714","BSTAR":"0.00071728000000","OBJECT_ID":"2022-005AK","SEMIMAJOR_AXIS":"6917.881","CENTER_NAME":"EARTH","TLE_LINE2":"2 51137  53.2136 308.5347 0001884 127.5800 232.5364 15.08839714 58939","RCS_SIZE":"LARGE","APOAPSIS":"541.050","MEAN_ELEMENT_THEORY":"SGP4","MEAN_ANOMALY":"232.5364","EPOCH":"2023-02-08T21:27:10.024128","EPHEMERIS_TYPE":"0"},{"TLE_LINE2":"2 51138  53.2157 308.4983 0001468 103.2807 256.8349 15.08816610 58925","RCS_SIZE":"MEDIUM","MEAN_ELEMENT_THEORY":"SGP4","APOAPSIS":"540.832","TIME_SYSTEM":"UTC","MEAN_MOTION":"15.08816610","BSTAR":"0.00094535000000","SEMIMAJOR_AXIS":"6917.952","CENTER_NAME":"EARTH","OBJECT_ID":"2022-005AL","EPOCH":"2023-02-08T21:37:46.850880","EPHEMERIS_TYPE":"0","MEAN_ANOMALY":"256.8349","NORAD_CAT_ID":"51138","PERIOD":"95.439","LAUNCH_DATE":"2022-01-19","ECCENTRICITY":"0.00014680","SITE":"AFETR","CLASSIFICATION_TYPE":"U","PERIAPSIS":"538.801","MEAN_MOTION_DOT":"0.00014780","OBJECT_NAME":"STARLINK-3177","ELEMENT_SET_NO":"999","FILE":"3780893","REV_AT_EPOCH":"5892","GP_ID":"224858881","RA_OF_ASC_NODE":"308.4983","COUNTRY_CODE":"US","OBJECT_TYPE":"PAYLOAD","REF_FRAME":"TEME","MEAN_MOTION_DDOT":"0.0000000000000","ARG_OF_PERICENTER":"103.2807","DECAY_DATE":null,"INCLINATION":"53.2157","TLE_LINE1":"1 51138U 22005AL  23039.90123670  .00014780  00000-0  94535-3 0  9991"},{"EPOCH":"2023-02-08T21:16:34.101984","EPHEMERIS_TYPE":"0","MEAN_ANOMALY":"227.8663","TLE_LINE2":"2 51139  53.2153 308.5651 0001920 132.2492 227.8663 15.08834209 58932","APOAPSIS":"541.091","MEAN_ELEMENT_THEORY":"SGP4","RCS_SIZE":"LARGE","MEAN_MOTION":"15.08834209","TIME_SYSTEM":"UTC","OBJECT_ID":"2022-005AM","SEMIMAJOR_AXIS":"6917.898","CENTER_NAME":"EARTH","BSTAR":"0.00160140000000","MEAN_MOTION_DOT":"0.00025286","OBJECT_NAME":"STARLINK-3172","PERIOD":"95.438","NORAD_CAT_ID":"51139","LAUNCH_DATE":"2022-01-19","ECCENTRICITY":"0.00019200","SITE":"AFETR","CLASSIFICATION_TYPE":"U","PERIAPSIS":"538.435","COUNTRY_CODE":"US","REF_FRAME":"TEME","OBJECT_TYPE":"PAYLOAD","ELEMENT_SET_NO":"999","GP_ID":"224859630","FILE":"3780893","REV_AT_EPOCH":"5893","RA_OF_ASC_NODE":"308.5651","ARG_OF_PERICENTER":"132.2492","MEAN_MOTION_DDOT":"0.0000000000000","DECAY_DATE":null,"TLE_LINE1":"1 51139U 22005AM  23039.88650581  .00025286  00000-0  16014-2 0  9993","INCLINATION":"53.2153"},{"OBJECT_TYPE":"PAYLOAD","REF_FRAME":"TEME","COUNTRY_CODE":"US","RA_OF_ASC_NODE":"308.5138","ELEMENT_SET_NO":"999","REV_AT_EPOCH":"5893","FILE":"3780893","GP_ID":"224859882","INCLINATION":"53.2162","TLE_LINE1":"1 51140U 22005AN  23039.89754331  .00028655  00000-0  18107-2 0  9992","MEAN_MOTION_DDOT":"0.0000000000000","ARG_OF_PERICENTER":"127.4827","DECAY_DATE":null,"MEAN_ANOMALY":"232.6307","EPOCH":"2023-02-08T21:32:27.741984","EPHEMERIS_TYPE":"0","TIME_SYSTEM":"UTC","MEAN_MOTION":"15.08850312","BSTAR":"0.00181070000000","SEMIMAJOR_AXIS":"6917.849","OBJECT_ID":"2022-005AN","CENTER_NAME":"EARTH","TLE_LINE2":"2 51140  53.2162 308.5138 0001558 127.4827 232.6307 15.08850312 58931","RCS_SIZE":"LARGE","APOAPSIS":"540.792","MEAN_ELEMENT_THEORY":"SGP4","OBJECT_NAME":"STARLINK-3175","MEAN_MOTION_DOT":"0.00028655","SITE":"AFETR","ECCENTRICITY":"0.00015580","PERIAPSIS":"538.636","CLASSIFICATION_TYPE":"U","NORAD_CAT_ID":"51140","PERIOD":"95.437","LAUNCH_DATE":"2022-01-19"},{"OBJECT_TYPE":"PAYLOAD","REF_FRAME":"TEME","COUNTRY_CODE":"US","RA_OF_ASC_NODE":"308.5951","ELEMENT_SET_NO":"999","REV_AT_EPOCH":"5893","FILE":"3780893","GP_ID":"224860632","INCLINATION":"53.2159","TLE_LINE1":"1 51141U 22005AP  23039.87915111  .00006138  00000-0  40359-3 0  9993","MEAN_MOTION_DDOT":"0.0000000000000","ARG_OF_PERICENTER":"102.1778","DECAY_DATE":null,"MEAN_ANOMALY":"257.9351","EPOCH":"2023-02-08T21:05:58.655904","EPHEMERIS_TYPE":"0","TIME_SYSTEM":"UTC","MEAN_MOTION":"15.08823879","BSTAR":"0.00040359000000","CENTER_NAME":"EARTH","SEMIMAJOR_AXIS":"6917.930","OBJECT_ID":"2022-005AP","TLE_LINE2":"2 51141  53.2159 308.5951 0001218 102.1778 257.9351 15.08823879 58936","RCS_SIZE":"MEDIUM","APOAPSIS":"540.637","MEAN_ELEMENT_THEORY":"SGP4","OBJECT_NAME":"STARLINK-3179","MEAN_MOTION_DOT":"0.00006138","ECCENTRICITY":"0.00012180","SITE":"AFETR","CLASSIFICATION_TYPE":"U","PERIAPSIS":"538.952","NORAD_CAT_ID":"51141","PERIOD":"95.439","LAUNCH_DATE":"2022-01-19"},{"RCS_SIZE":"LARGE","MEAN_ELEMENT_THEORY":"SGP4","APOAPSIS":"540.703","TLE_LINE2":"2 51142  53.2150 298.6219 0001299  77.3493 282.7645 15.08820684 59068","BSTAR":"0.00142210000000","SEMIMAJOR_AXIS":"6917.939","CENTER_NAME":"EARTH","OBJECT_ID":"2022-005AQ","TIME_SYSTEM":"UTC","MEAN_MOTION":"15.08820684","EPHEMERIS_TYPE":"0","EPOCH":"2023-02-08T20:58:05.654784","MEAN_ANOMALY":"282.7645","LAUNCH_DATE":"2022-01-19","NORAD_CAT_ID":"51142","PERIOD":"95.439","PERIAPSIS":"538.906","CLASSIFICATION_TYPE":"U","SITE":"AFETR","ECCENTRICITY":"0.00012990","MEAN_MOTION_DOT":"0.00022405","OBJECT_NAME":"STARLINK-3369","REV_AT_EPOCH":"5906","FILE":"3780893","GP_ID":"224859380","ELEMENT_SET_NO":"999","RA_OF_ASC_NODE":"298.6219","COUNTRY_CODE":"US","OBJECT_TYPE":"PAYLOAD","REF_FRAME":"TEME","DECAY_DATE":null,"MEAN_MOTION_DDOT":"0.0000000000000","ARG_OF_PERICENTER":"77.3493","INCLINATION":"53.2150","TLE_LINE1":"1 51142U 22005AQ  23039.87367656  .00022405  00000-0  14221-2 0  9992"}];
